0 CBERS 1 DEB
1 31583U 99057PE  13283.07789396  .00002899  00000-0  91662-3 0  4862
2 31583 098.2696 235.6602 0004814 066.1949 293.9906 14.40905511335490
0 CBERS 1 DEB
1 31583U 99057PE  13284.11950645  .00002985  00000-0  94317-3 0  4872
2 31583 098.2718 236.6706 0004548 071.7350 288.4561 14.40912896335640
0 CBERS 1 DEB
1 31583U 99057PE  13285.64719090  .00003102  00000-0  97933-3 0  4888
2 31583 098.2718 238.1500 0004811 069.7109 290.4597 14.40924125335865
0 CBERS 1 DEB
1 31583U 99057PE  13287.10543238  .00003327  00000-0  10490-2 0  4892
2 31583 098.2726 239.5610 0004859 074.7433 285.4813 14.40937047336075
0 CBERS 1 DEB
1 31583U 99057PE  13289.11916333  .00003558  00000-0  11205-2 0  4908
2 31583 098.2692 241.5063 0005774 040.7972 319.3897 14.40954453336361
0 CBERS 1 DEB
1 31583U 99057PE  13290.09129955  .00003722  00000-0  11711-2 0  4919
2 31583 098.2658 242.4401 0006463 027.9254 332.2572 14.40964381336506
0 CBERS 1 DEB
1 31583U 99057PE  13290.71623440  .00006007  00000-0  18709-2 0  4931
2 31583 098.2684 243.0500 0004539 063.0015 297.2132 14.40975624336593
0 CBERS 1 DEB
1 31583U 99057PE  13290.71623787  .00003903  00000-0  12276-2 0  4929
2 31583 098.2708 243.0472 0004656 057.5626 302.6504 14.40971515336593
0 CBERS 1 DEB
1 31583U 99057PE  13292.10498100  .00004050  00000-0  12728-2 0  4930
2 31583 098.2708 244.3891 0004637 052.3957 307.7804 14.40984734336799
0 CBERS 1 DEB
1 31583U 99057PE  13293.63259347  .00004300  00000-0  13501-2 0  4946
2 31583 098.2733 245.8736 0005797 064.7554 295.4655 14.41001069337014
0 CBERS 1 DEB
1 31583U 99057PE  13295.09074711  .00004398  00000-0  13801-2 0  4959
2 31583 098.2715 247.2810 0005511 046.4978 313.6899 14.41015572337224
